{
  "type": "FeatureCollection",
  "features": [
    {
      "type": "Feature",
      "properties": {
        "norad_id": 28890,
        "name": "BEIJING 1",
        "group": "dmc",
        "lat": -49.83304765544969,
        "lon": -71.4161646546373,
        "alt_km": 691.45076372309,
        "timestamp": "2025-12-16T23:36:35.851721+00:00",
        "meta_object_name": "BEIJING 1",
        "meta_object_id": "2005-043A",
        "meta_epoch": "2025-12-16T07:47:31.639200",
        "meta_mean_motion": 14.63370003,
        "meta_eccentricity": 0.00154897,
        "meta_inclination": 98.2647,
        "meta_ra_of_asc_node": 117.8393,
        "meta_arg_of_pericenter": 130.5722,
        "meta_mean_anomaly": 229.6831,
        "meta_ephemeris_type": 0,
        "meta_classification_type": "U",
        "meta_norad_cat_id": 28890,
        "meta_element_set_no": 999,
        "meta_rev_at_epoch": 7390,
        "meta_bstar": 6.5084317e-05,
        "meta_mean_motion_dot": 2.88e-06,
        "meta_mean_motion_ddot": 0,
        "tle_line1": "1 28890U 05043A   25350.32467175  .00000288  00000+0  65084-4 0  9993",
        "tle_line2": "2 28890  98.2647 117.8393 0015489 130.5722 229.6831 14.63370003 73901"
      },
      "geometry": {
        "type": "Point",
        "coordinates": [
          -71.4161646546373,
          -49.83304765544969
        ]
      }
    },
    {
      "type": "Feature",
      "properties": {
        "norad_id": 33320,
        "name": "HUANJING 1A (HJ-1A)",
        "group": "dmc",
        "lat": -23.00804896435742,
        "lon": 155.83177316515022,
        "alt_km": 638.0051341418948,
        "timestamp": "2025-12-16T23:36:35.851745+00:00",
        "meta_object_name": "HUANJING 1A (HJ-1A)",
        "meta_object_id": "2008-041A",
        "meta_epoch": "2025-12-16T08:07:39.021312",
        "meta_mean_motion": 14.83409599,
        "meta_eccentricity": 0.00199519,
        "meta_inclination": 97.6539,
        "meta_ra_of_asc_node": 338.4872,
        "meta_arg_of_pericenter": 23.1865,
        "meta_mean_anomaly": 337.0245,
        "meta_ephemeris_type": 0,
        "meta_classification_type": "U",
        "meta_norad_cat_id": 33320,
        "meta_element_set_no": 999,
        "meta_rev_at_epoch": 93129,
        "meta_bstar": 0.00025224096,
        "meta_mean_motion_dot": 2.026e-05,
        "meta_mean_motion_ddot": 0,
        "tle_line1": "1 33320U 08041A   25350.33864608  .00002026  00000+0  25224-3 0  9994",
        "tle_line2": "2 33320  97.6539 338.4872 0019951  23.1865 337.0245 14.83409599931297"
      },
      "geometry": {
        "type": "Point",
        "coordinates": [
          155.83177316515022,
          -23.00804896435742
        ]
      }
    },
    {
      "type": "Feature",
      "properties": {
        "norad_id": 33321,
        "name": "HUANJING 1B (HJ-1B)",
        "group": "dmc",
        "lat": 54.60816769478376,
        "lon": -28.099320180302016,
        "alt_km": 588.6760334910814,
        "timestamp": "2025-12-16T23:36:35.851760+00:00",
        "meta_object_name": "HUANJING 1B (HJ-1B)",
        "meta_object_id": "2008-041B",
        "meta_epoch": "2025-12-16T05:32:53.280672",
        "meta_mean_motion": 14.82833754,
        "meta_eccentricity": 0.0038205,
        "meta_inclination": 97.6401,
        "meta_ra_of_asc_node": 342.0723,
        "meta_arg_of_pericenter": 64.6622,
        "meta_mean_anomaly": 295.8541,
        "meta_ephemeris_type": 0,
        "meta_classification_type": "U",
        "meta_norad_cat_id": 33321,
        "meta_element_set_no": 999,
        "meta_rev_at_epoch": 93129,
        "meta_bstar": 0.00018998255,
        "meta_mean_motion_dot": 1.506e-05,
        "meta_mean_motion_ddot": 0,
        "tle_line1": "1 33321U 08041B   25350.23117223  .00001506  00000+0  18998-3 0  9990",
        "tle_line2": "2 33321  97.6401 342.0723 0038205  64.6622 295.8541 14.82833754931299"
      },
      "geometry": {
        "type": "Point",
        "coordinates": [
          -28.099320180302016,
          54.60816769478376
        ]
      }
    },
    {
      "type": "Feature",
      "properties": {
        "norad_id": 33446,
        "name": "YAOGAN-4",
        "group": "dmc",
        "lat": -34.625890956594986,
        "lon": -73.44326074677701,
        "alt_km": 618.122397956593,
        "timestamp": "2025-12-16T23:36:35.851772+00:00",
        "meta_object_name": "YAOGAN-4",
        "meta_object_id": "2008-061A",
        "meta_epoch": "2025-12-16T07:34:14.077344",
        "meta_mean_motion": 14.82693387,
        "meta_eccentricity": 0.00133535,
        "meta_inclination": 97.9187,
        "meta_ra_of_asc_node": 280.3797,
        "meta_arg_of_pericenter": 310.8993,
        "meta_mean_anomaly": 49.1063,
        "meta_ephemeris_type": 0,
        "meta_classification_type": "U",
        "meta_norad_cat_id": 33446,
        "meta_element_set_no": 999,
        "meta_rev_at_epoch": 91856,
        "meta_bstar": 0.00017752381,
        "meta_mean_motion_dot": 1.38e-05,
        "meta_mean_motion_ddot": 0,
        "tle_line1": "1 33446U 08061A   25350.31544071  .00001380  00000+0  17752-3 0  9991",
        "tle_line2": "2 33446  97.9187 280.3797 0013353 310.8993  49.1063 14.82693387918560"
      },
      "geometry": {
        "type": "Point",
        "coordinates": [
          -73.44326074677701,
          -34.625890956594986
        ]
      }
    },
    {
      "type": "Feature",
      "properties": {
        "norad_id": 35681,
        "name": "DEIMOS-1",
        "group": "dmc",
        "lat": -23.09197443519609,
        "lon": 154.7019198436638,
        "alt_km": 650.9010811582239,
        "timestamp": "2025-12-16T23:36:35.851784+00:00",
        "meta_object_name": "DEIMOS-1",
        "meta_object_id": "2009-041A",
        "meta_epoch": "2025-12-16T09:03:43.355232",
        "meta_mean_motion": 14.74960244,
        "meta_eccentricity": 0.00026561,
        "meta_inclination": 97.7145,
        "meta_ra_of_asc_node": 150.8109,
        "meta_arg_of_pericenter": 73.5031,
        "meta_mean_anomaly": 286.647,
        "meta_ephemeris_type": 0,
        "meta_classification_type": "U",
        "meta_norad_cat_id": 35681,
        "meta_element_set_no": 999,
        "meta_rev_at_epoch": 87993,
        "meta_bstar": 0.00014159612,
        "meta_mean_motion_dot": 9.04e-06,
        "meta_mean_motion_ddot": 0,
        "tle_line1": "1 35681U 09041A   25350.37758513  .00000904  00000+0  14160-3 0  9998",
        "tle_line2": "2 35681  97.7145 150.8109 0002656  73.5031 286.6470 14.74960244879930"
      },
      "geometry": {
        "type": "Point",
        "coordinates": [
          154.7019198436638,
          -23.09197443519609
        ]
      }
    },
    {
      "type": "Feature",
      "properties": {
        "norad_id": 35683,
        "name": "UK-DMC 2",
        "group": "dmc",
        "lat": 2.0248172728855325,
        "lon": 125.48601685949427,
        "alt_km": 645.9185725275938,
        "timestamp": "2025-12-16T23:36:35.851795+00:00",
        "meta_object_name": "UK-DMC 2",
        "meta_object_id": "2009-041C",
        "meta_epoch": "2025-12-16T08:57:14.510304",
        "meta_mean_motion": 14.75631388,
        "meta_eccentricity": 0.0001463,
        "meta_inclination": 97.8554,
        "meta_ra_of_asc_node": 125.1725,
        "meta_arg_of_pericenter": 95.6041,
        "meta_mean_anomaly": 264.5336,
        "meta_ephemeris_type": 0,
        "meta_classification_type": "U",
        "meta_norad_cat_id": 35683,
        "meta_element_set_no": 999,
        "meta_rev_at_epoch": 87960,
        "meta_bstar": 0.00015162644,
        "meta_mean_motion_dot": 9.86e-06,
        "meta_mean_motion_ddot": 0,
        "tle_line1": "1 35683U 09041C   25350.37308461  .00000986  00000+0  15163-3 0  9997",
        "tle_line2": "2 35683  97.8554 125.1725 0001463  95.6041 264.5336 14.75631388879602"
      },
      "geometry": {
        "type": "Point",
        "coordinates": [
          125.48601685949427,
          2.0248172728855325
        ]
      }
    },
    {
      "type": "Feature",
      "properties": {
        "norad_id": 40715,
        "name": "DMC3-FM1",
        "group": "dmc",
        "lat": -20.74339240465634,
        "lon": 35.09598565408956,
        "alt_km": 618.2466088330484,
        "timestamp": "2025-12-16T23:36:35.851806+00:00",
        "meta_object_name": "DMC3-FM1",
        "meta_object_id": "2015-032A",
        "meta_epoch": "2025-12-16T06:32:29.760288",
        "meta_mean_motion": 14.85449352,
        "meta_eccentricity": 0.00043833,
        "meta_inclination": 97.6694,
        "meta_ra_of_asc_node": 217.3363,
        "meta_arg_of_pericenter": 308.0301,
        "meta_mean_anomaly": 52.0518,
        "meta_ephemeris_type": 0,
        "meta_classification_type": "U",
        "meta_norad_cat_id": 40715,
        "meta_element_set_no": 999,
        "meta_rev_at_epoch": 56275,
        "meta_bstar": 0.00014885438,
        "meta_mean_motion_dot": 1.232e-05,
        "meta_mean_motion_ddot": 0,
        "tle_line1": "1 40715U 15032A   25350.27256667  .00001232  00000+0  14885-3 0  9990",
        "tle_line2": "2 40715  97.6694 217.3363 0004383 308.0301  52.0518 14.85449352562759"
      },
      "geometry": {
        "type": "Point",
        "coordinates": [
          35.09598565408956,
          -20.74339240465634
        ]
      }
    },
    {
      "type": "Feature",
      "properties": {
        "norad_id": 40716,
        "name": "DMC3-FM2",
        "group": "dmc",
        "lat": 77.95221214777109,
        "lon": -179.71871923097336,
        "alt_km": 607.1193494825047,
        "timestamp": "2025-12-16T23:36:35.851817+00:00",
        "meta_object_name": "DMC3-FM2",
        "meta_object_id": "2015-032B",
        "meta_epoch": "2025-12-16T08:41:53.043072",
        "meta_mean_motion": 14.85448575,
        "meta_eccentricity": 0.00050623,
        "meta_inclination": 97.6752,
        "meta_ra_of_asc_node": 218.8694,
        "meta_arg_of_pericenter": 313.6167,
        "meta_mean_anomaly": 46.4628,
        "meta_ephemeris_type": 0,
        "meta_classification_type": "U",
        "meta_norad_cat_id": 40716,
        "meta_element_set_no": 999,
        "meta_rev_at_epoch": 56276,
        "meta_bstar": 5.9908939e-05,
        "meta_mean_motion_dot": 4.65e-06,
        "meta_mean_motion_ddot": 0,
        "tle_line1": "1 40716U 15032B   25350.36241948  .00000465  00000+0  59909-4 0  9991",
        "tle_line2": "2 40716  97.6752 218.8694 0005062 313.6167  46.4628 14.85448575562761"
      },
      "geometry": {
        "type": "Point",
        "coordinates": [
          -179.71871923097336,
          77.95221214777109
        ]
      }
    },
    {
      "type": "Feature",
      "properties": {
        "norad_id": 40717,
        "name": "DMC3-FM3",
        "group": "dmc",
        "lat": -34.82790133537764,
        "lon": -133.50850084179257,
        "alt_km": 615.4562208694415,
        "timestamp": "2025-12-16T23:36:35.851828+00:00",
        "meta_object_name": "DMC3-FM3",
        "meta_object_id": "2015-032C",
        "meta_epoch": "2025-12-16T07:36:03.980736",
        "meta_mean_motion": 14.85433995,
        "meta_eccentricity": 0.00044564,
        "meta_inclination": 97.6805,
        "meta_ra_of_asc_node": 220.4606,
        "meta_arg_of_pericenter": 315.3644,
        "meta_mean_anomaly": 44.7212,
        "meta_ephemeris_type": 0,
        "meta_classification_type": "U",
        "meta_norad_cat_id": 40717,
        "meta_element_set_no": 999,
        "meta_rev_at_epoch": 56276,
        "meta_bstar": 2.5611096e-05,
        "meta_mean_motion_dot": 1.69e-06,
        "meta_mean_motion_ddot": 0,
        "tle_line1": "1 40717U 15032C   25350.31671274  .00000169  00000+0  25611-4 0  9990",
        "tle_line2": "2 40717  97.6805 220.4606 0004456 315.3644  44.7212 14.85433995562768"
      },
      "geometry": {
        "type": "Point",
        "coordinates": [
          -133.50850084179257,
          -34.82790133537764
        ]
      }
    }
  ]
}